ONEWEB-0628             
1 55169U 23004AF  26014.93961120  .00000104  00000+0  25417-3 0  9995
2 55169  87.8929  21.0792 0002493  90.4563 269.6852 13.12440326147935
ONEWEB-0629             
1 55170U 23004AG  26014.79837323  .00000042  00000+0  75211-4 0  9997
2 55170  87.9083  36.3629 0002071  86.1768 273.9600 13.17650258147388
ONEWEB-0631             
1 55171U 23004AH  26014.90649120  .00000060  00000+0  12053-3 0  9991
2 55171  87.9188   5.8657 0001671 105.2056 254.9261 13.18685486149471
ONEWEB-0709             
1 55172U 23004AJ  26014.54265666  .00000556  00000+0  15315-2 0  9994
2 55172  87.8824  51.6721 0001139 119.1390 240.9852 13.11417392145731
ONEWEB-0710             
1 55173U 23004AK  26014.96459066 -.00000001  00000+0 -35434-4 0  9993
2 55173  87.9083  36.3243 0001944  96.4590 263.6763 13.17650218147403
ONEWEB-0711             
1 55174U 23004AL  26014.81899846 -.00000787  00000+0 -22563-2 0  9990
2 55174  87.8831  51.5939 0002508 104.4213 255.7194 13.11416842145735
ONEWEB-0713             
1 55175U 23004AM  26014.53247616  .00000204  00000+0  53989-3 0  9991
2 55175  87.8831  51.6519 0002246 102.6070 257.5309 13.11419698145685
ONEWEB-0715             
1 55176U 23004AN  26014.52738824 -.00000021  00000+0 -94102-4 0  9999
2 55176  87.8830  51.6537 0001570 120.4316 239.6967 13.11419158145722
