<?xml version="1.0" encoding="UTF-8"?>
<ndm xmlns:xsi="http://www.w3.org/2001/XMLSchema-instance" xsi:noNamespaceSchemaLocation="https://sanaregistry.org/r/ndmxml_unqualified/ndmxml-2.0.0-master-2.0.xsd">
<omm id="CCSDS_OMM_VERS" version="2.0">
<header><CREATION_DATE/><ORIGINATOR/></header><body><segment><metadata><OBJECT_NAME>ONEWEB-0628</OBJECT_NAME><OBJECT_ID>2023-004AF</OBJECT_ID><CENTER_NAME>EARTH</CENTER_NAME><REF_FRAME>TEME</REF_FRAME><TIME_SYSTEM>UTC</TIME_SYSTEM><MEAN_ELEMENT_THEORY>SGP4</MEAN_ELEMENT_THEORY></metadata><data><meanElements><EPOCH>2026-01-14T22:33:02.407680</EPOCH><MEAN_MOTION>13.12440326</MEAN_MOTION><ECCENTRICITY>.00024939</ECCENTRICITY><INCLINATION>87.8929</INCLINATION><RA_OF_ASC_NODE>21.0792</RA_OF_ASC_NODE><ARG_OF_PERICENTER>90.4563</ARG_OF_PERICENTER><MEAN_ANOMALY>269.6852</MEAN_ANOMALY></meanElements><tleParameters><EPHEMERIS_TYPE>0</EPHEMERIS_TYPE><CLASSIFICATION_TYPE>U</CLASSIFICATION_TYPE><NORAD_CAT_ID>55169</NORAD_CAT_ID><ELEMENT_SET_NO>999</ELEMENT_SET_NO><REV_AT_EPOCH>14793</REV_AT_EPOCH><BSTAR>.25416758E-3</BSTAR><MEAN_MOTION_DOT>.104E-5</MEAN_MOTION_DOT><MEAN_MOTION_DDOT>0</MEAN_MOTION_DDOT></tleParameters></data></segment></body></omm>
<omm id="CCSDS_OMM_VERS" version="2.0">
<header><CREATION_DATE/><ORIGINATOR/></header><body><segment><metadata><OBJECT_NAME>ONEWEB-0629</OBJECT_NAME><OBJECT_ID>2023-004AG</OBJECT_ID><CENTER_NAME>EARTH</CENTER_NAME><REF_FRAME>TEME</REF_FRAME><TIME_SYSTEM>UTC</TIME_SYSTEM><MEAN_ELEMENT_THEORY>SGP4</MEAN_ELEMENT_THEORY></metadata><data><meanElements><EPOCH>2026-01-14T19:09:39.447072</EPOCH><MEAN_MOTION>13.17650258</MEAN_MOTION><ECCENTRICITY>.0002071</ECCENTRICITY><INCLINATION>87.9083</INCLINATION><RA_OF_ASC_NODE>36.3629</RA_OF_ASC_NODE><ARG_OF_PERICENTER>86.1768</ARG_OF_PERICENTER><MEAN_ANOMALY>273.9600</MEAN_ANOMALY></meanElements><tleParameters><EPHEMERIS_TYPE>0</EPHEMERIS_TYPE><CLASSIFICATION_TYPE>U</CLASSIFICATION_TYPE><NORAD_CAT_ID>55170</NORAD_CAT_ID><ELEMENT_SET_NO>999</ELEMENT_SET_NO><REV_AT_EPOCH>14738</REV_AT_EPOCH><BSTAR>.75211E-4</BSTAR><MEAN_MOTION_DOT>.42E-6</MEAN_MOTION_DOT><MEAN_MOTION_DDOT>0</MEAN_MOTION_DDOT></tleParameters></data></segment></body></omm>
<omm id="CCSDS_OMM_VERS" version="2.0">
<header><CREATION_DATE/><ORIGINATOR/></header><body><segment><metadata><OBJECT_NAME>ONEWEB-0631</OBJECT_NAME><OBJECT_ID>2023-004AH</OBJECT_ID><CENTER_NAME>EARTH</CENTER_NAME><REF_FRAME>TEME</REF_FRAME><TIME_SYSTEM>UTC</TIME_SYSTEM><MEAN_ELEMENT_THEORY>SGP4</MEAN_ELEMENT_THEORY></metadata><data><meanElements><EPOCH>2026-01-14T21:45:20.839680</EPOCH><MEAN_MOTION>13.18685486</MEAN_MOTION><ECCENTRICITY>.00016718</ECCENTRICITY><INCLINATION>87.9188</INCLINATION><RA_OF_ASC_NODE>5.8657</RA_OF_ASC_NODE><ARG_OF_PERICENTER>105.2056</ARG_OF_PERICENTER><MEAN_ANOMALY>254.9261</MEAN_ANOMALY></meanElements><tleParameters><EPHEMERIS_TYPE>0</EPHEMERIS_TYPE><CLASSIFICATION_TYPE>U</CLASSIFICATION_TYPE><NORAD_CAT_ID>55171</NORAD_CAT_ID><ELEMENT_SET_NO>999</ELEMENT_SET_NO><REV_AT_EPOCH>14947</REV_AT_EPOCH><BSTAR>.12053316E-3</BSTAR><MEAN_MOTION_DOT>.6E-6</MEAN_MOTION_DOT><MEAN_MOTION_DDOT>0</MEAN_MOTION_DDOT></tleParameters></data></segment></body></omm>
<omm id="CCSDS_OMM_VERS" version="2.0">
<header><CREATION_DATE/><ORIGINATOR/></header><body><segment><metadata><OBJECT_NAME>ONEWEB-0709</OBJECT_NAME><OBJECT_ID>2023-004AJ</OBJECT_ID><CENTER_NAME>EARTH</CENTER_NAME><REF_FRAME>TEME</REF_FRAME><TIME_SYSTEM>UTC</TIME_SYSTEM><MEAN_ELEMENT_THEORY>SGP4</MEAN_ELEMENT_THEORY></metadata><data><meanElements><EPOCH>2026-01-14T13:01:25.535424</EPOCH><MEAN_MOTION>13.11417392</MEAN_MOTION><ECCENTRICITY>.0001139</ECCENTRICITY><INCLINATION>87.8824</INCLINATION><RA_OF_ASC_NODE>51.6721</RA_OF_ASC_NODE><ARG_OF_PERICENTER>119.1390</ARG_OF_PERICENTER><MEAN_ANOMALY>240.9852</MEAN_ANOMALY></meanElements><tleParameters><EPHEMERIS_TYPE>0</EPHEMERIS_TYPE><CLASSIFICATION_TYPE>U</CLASSIFICATION_TYPE><NORAD_CAT_ID>55172</NORAD_CAT_ID><ELEMENT_SET_NO>999</ELEMENT_SET_NO><REV_AT_EPOCH>14573</REV_AT_EPOCH><BSTAR>.15315E-2</BSTAR><MEAN_MOTION_DOT>.556E-5</MEAN_MOTION_DOT><MEAN_MOTION_DDOT>0</MEAN_MOTION_DDOT></tleParameters></data></segment></body></omm>
<omm id="CCSDS_OMM_VERS" version="2.0">
<header><CREATION_DATE/><ORIGINATOR/></header><body><segment><metadata><OBJECT_NAME>ONEWEB-0710</OBJECT_NAME><OBJECT_ID>2023-004AK</OBJECT_ID><CENTER_NAME>EARTH</CENTER_NAME><REF_FRAME>TEME</REF_FRAME><TIME_SYSTEM>UTC</TIME_SYSTEM><MEAN_ELEMENT_THEORY>SGP4</MEAN_ELEMENT_THEORY></metadata><data><meanElements><EPOCH>2026-01-14T23:09:00.633024</EPOCH><MEAN_MOTION>13.17650218</MEAN_MOTION><ECCENTRICITY>.00019448</ECCENTRICITY><INCLINATION>87.9083</INCLINATION><RA_OF_ASC_NODE>36.3243</RA_OF_ASC_NODE><ARG_OF_PERICENTER>96.4590</ARG_OF_PERICENTER><MEAN_ANOMALY>263.6763</MEAN_ANOMALY></meanElements><tleParameters><EPHEMERIS_TYPE>0</EPHEMERIS_TYPE><CLASSIFICATION_TYPE>U</CLASSIFICATION_TYPE><NORAD_CAT_ID>55173</NORAD_CAT_ID><ELEMENT_SET_NO>999</ELEMENT_SET_NO><REV_AT_EPOCH>14740</REV_AT_EPOCH><BSTAR>-.35434045E-4</BSTAR><MEAN_MOTION_DOT>-.1E-7</MEAN_MOTION_DOT><MEAN_MOTION_DDOT>0</MEAN_MOTION_DDOT></tleParameters></data></segment></body></omm>
<omm id="CCSDS_OMM_VERS" version="2.0">
<header><CREATION_DATE/><ORIGINATOR/></header><body><segment><metadata><OBJECT_NAME>ONEWEB-0711</OBJECT_NAME><OBJECT_ID>2023-004AL</OBJECT_ID><CENTER_NAME>EARTH</CENTER_NAME><REF_FRAME>TEME</REF_FRAME><TIME_SYSTEM>UTC</TIME_SYSTEM><MEAN_ELEMENT_THEORY>SGP4</MEAN_ELEMENT_THEORY></metadata><data><meanElements><EPOCH>2026-01-14T19:39:21.466944</EPOCH><MEAN_MOTION>13.11416842</MEAN_MOTION><ECCENTRICITY>.00025088</ECCENTRICITY><INCLINATION>87.8831</INCLINATION><RA_OF_ASC_NODE>51.5939</RA_OF_ASC_NODE><ARG_OF_PERICENTER>104.4213</ARG_OF_PERICENTER><MEAN_ANOMALY>255.7194</MEAN_ANOMALY></meanElements><tleParameters><EPHEMERIS_TYPE>0</EPHEMERIS_TYPE><CLASSIFICATION_TYPE>U</CLASSIFICATION_TYPE><NORAD_CAT_ID>55174</NORAD_CAT_ID><ELEMENT_SET_NO>999</ELEMENT_SET_NO><REV_AT_EPOCH>14573</REV_AT_EPOCH><BSTAR>-.22563431E-2</BSTAR><MEAN_MOTION_DOT>-.787E-5</MEAN_MOTION_DOT><MEAN_MOTION_DDOT>0</MEAN_MOTION_DDOT></tleParameters></data></segment></body></omm>
<omm id="CCSDS_OMM_VERS" version="2.0">
<header><CREATION_DATE/><ORIGINATOR/></header><body><segment><metadata><OBJECT_NAME>ONEWEB-0713</OBJECT_NAME><OBJECT_ID>2023-004AM</OBJECT_ID><CENTER_NAME>EARTH</CENTER_NAME><REF_FRAME>TEME</REF_FRAME><TIME_SYSTEM>UTC</TIME_SYSTEM><MEAN_ELEMENT_THEORY>SGP4</MEAN_ELEMENT_THEORY></metadata><data><meanElements><EPOCH>2026-01-14T12:46:45.940224</EPOCH><MEAN_MOTION>13.11419698</MEAN_MOTION><ECCENTRICITY>.0002246</ECCENTRICITY><INCLINATION>87.8831</INCLINATION><RA_OF_ASC_NODE>51.6519</RA_OF_ASC_NODE><ARG_OF_PERICENTER>102.6070</ARG_OF_PERICENTER><MEAN_ANOMALY>257.5309</MEAN_ANOMALY></meanElements><tleParameters><EPHEMERIS_TYPE>0</EPHEMERIS_TYPE><CLASSIFICATION_TYPE>U</CLASSIFICATION_TYPE><NORAD_CAT_ID>55175</NORAD_CAT_ID><ELEMENT_SET_NO>999</ELEMENT_SET_NO><REV_AT_EPOCH>14568</REV_AT_EPOCH><BSTAR>.53989E-3</BSTAR><MEAN_MOTION_DOT>.204E-5</MEAN_MOTION_DOT><MEAN_MOTION_DDOT>0</MEAN_MOTION_DDOT></tleParameters></data></segment></body></omm>
<omm id="CCSDS_OMM_VERS" version="2.0">
<header><CREATION_DATE/><ORIGINATOR/></header><body><segment><metadata><OBJECT_NAME>ONEWEB-0715</OBJECT_NAME><OBJECT_ID>2023-004AN</OBJECT_ID><CENTER_NAME>EARTH</CENTER_NAME><REF_FRAME>TEME</REF_FRAME><TIME_SYSTEM>UTC</TIME_SYSTEM><MEAN_ELEMENT_THEORY>SGP4</MEAN_ELEMENT_THEORY></metadata><data><meanElements><EPOCH>2026-01-14T12:39:26.343936</EPOCH><MEAN_MOTION>13.11419158</MEAN_MOTION><ECCENTRICITY>.000157</ECCENTRICITY><INCLINATION>87.8830</INCLINATION><RA_OF_ASC_NODE>51.6537</RA_OF_ASC_NODE><ARG_OF_PERICENTER>120.4316</ARG_OF_PERICENTER><MEAN_ANOMALY>239.6967</MEAN_ANOMALY></meanElements><tleParameters><EPHEMERIS_TYPE>0</EPHEMERIS_TYPE><CLASSIFICATION_TYPE>U</CLASSIFICATION_TYPE><NORAD_CAT_ID>55176</NORAD_CAT_ID><ELEMENT_SET_NO>999</ELEMENT_SET_NO><REV_AT_EPOCH>14572</REV_AT_EPOCH><BSTAR>-.94102E-4</BSTAR><MEAN_MOTION_DOT>-.21E-6</MEAN_MOTION_DOT><MEAN_MOTION_DDOT>0</MEAN_MOTION_DDOT></tleParameters></data></segment></body></omm>

</ndm>
